NORAD_CAT_ID,OBJECT_NAME,OBJECT_TYPE,EPOCH,MEAN_MOTION,ECCENTRICITY,INCLINATION,RA_OF_ASC_NODE,ARG_OF_PERICENTER,MEAN_ANOMALY,BSTAR,MEAN_MOTION_DOT,MEAN_MOTION_DDOT,TLE_LINE0,TLE_LINE1,TLE_LINE2,SEMIMAJOR_AXIS,PERIOD,APOGEE,PERIGEE,DECAYED
53158.0,STARLINK-4054,PAYLOAD,2023-04-12 10:26:30,15.08836214,0.0001331,53.2158,252.7658,82.615,277.4993,-2.6155e-05,-7.04e-06,0.0,0 STARLINK-4054,1 53158U 22083AC  23102.43507864 -.00000704  00000-0 -26155-4 0  9998,2 53158  53.2158 252.7658 0001331  82.6150 277.4993 15.08836214 41625,6917.892,95.438,540.678,538.836,0.0
53158.0,STARLINK-4054,PAYLOAD,2023-04-12 13:37:16,15.08841639,0.000104,53.2159,252.171,87.8848,272.2264,9.8988e-05,1.288e-05,0.0,0 STARLINK-4054,1 53158U 22083AC  23102.56755787  .00001288  00000-0  98988-4 0  9990,2 53158  53.2159 252.1710 0001040  87.8848 272.2264 15.08841639 41011,6917.875,95.437,540.46,539.021,0.0
53158.0,STARLINK-4054,PAYLOAD,2023-04-13 10:17:18,15.08836712,0.00011,53.2158,248.3057,100.5138,259.5978,0.00026938,4.002e-05,0.0,0 STARLINK-4054,1 53158U 22083AC  23103.42868213  .00004002  00000-0  26938-3 0  9997,2 53158  53.2158 248.3057 0001100 100.5138 259.5978 15.08836712 41143,6917.89,95.438,540.516,538.994,0.0
53158.0,STARLINK-4054,PAYLOAD,2023-04-13 16:38:50,15.08854501,0.0001038,53.2156,247.1167,94.8972,265.2138,0.00094071,0.00014721,0.0,0 STARLINK-4054,1 53158U 22083AC  23103.69363950  .00014721  00000-0  94071-3 0  9996,2 53158  53.2156 247.1167 0001038  94.8972 265.2138 15.08854501 41813,6917.836,95.437,540.419,538.983,0.0
53158.0,STARLINK-4054,PAYLOAD,2023-04-14 02:11:09,15.08844942,0.000106,53.2152,245.3326,90.6413,269.47,0.00096969,0.0001518,0.0,0 STARLINK-4054,1 53158U 22083AC  23104.09108245  .00015180  00000-0  96969-3 0  9993,2 53158  53.2152 245.3326 0001060  90.6413 269.4700 15.08844942 41870,6917.865,95.437,540.464,538.997,0.0
53158.0,STARLINK-4054,PAYLOAD,2023-04-14 10:08:05,15.08848294,0.0001057,53.2151,243.8456,92.0204,268.0909,0.0010165,0.0001593,0.0,0 STARLINK-4054,1 53158U 22083AC  23104.42228176  .00015930  00000-0  10165-2 0  9992,2 53158  53.2151 243.8456 0001057  92.0204 268.0909 15.08848294 41292,6917.855,95.437,540.451,538.989,0.0
53158.0,STARLINK-4054,PAYLOAD,2023-04-15 02:01:56,15.08864746,0.0001656,53.2149,240.872,81.0082,279.1097,0.0014372,0.00022675,0.0,0 STARLINK-4054,1 53158U 22083AC  23105.08467643  .00022675  00000-0  14372-2 0  9997,2 53158  53.2149 240.8720 0001656  81.0082 279.1097 15.08864746 42020,6917.805,95.436,540.815,538.524,0.0
53158.0,STARLINK-4054,PAYLOAD,2023-04-15 13:09:38,15.08855716,0.0001155,53.2146,238.7905,74.3752,285.7368,0.0017526,0.00027727,0.0,0 STARLINK-4054,1 53158U 22083AC  23105.54835654  .00027727  00000-0  17526-2 0  9996,2 53158  53.2146 238.7905 0001155  74.3752 285.7368 15.08855716 42099,6917.832,95.437,540.496,538.898,0.0
53158.0,STARLINK-4054,PAYLOAD,2023-04-15 17:55:47,15.08865777,0.0001189,53.2145,237.8981,71.3992,288.7129,0.0022367,0.00035514,0.0,0 STARLINK-4054,1 53158U 22083AC  23105.74707403  .00035514  00000-0  22367-2 0  9990,2 53158  53.2145 237.8981 0001189  71.3992 288.7129 15.08865777 41491,6917.802,95.436,540.489,538.844,0.0
53158.0,STARLINK-4054,PAYLOAD,2023-04-16 08:14:15,15.08857518,0.0001387,53.2132,235.2221,73.5232,286.5913,0.0016421,0.00025955,0.0,0 STARLINK-4054,1 53158U 22083AC  23106.34323767  .00025955  00000-0  16421-2 0  9996,2 53158  53.2132 235.2221 0001387  73.5232 286.5913 15.08857518 42219,6917.827,95.436,540.651,538.732,0.0
53158.0,STARLINK-4054,PAYLOAD,2023-04-16 13:00:25,15.08855622,8.62e-05,53.2151,234.3298,47.1604,312.946,0.0019198,0.00030411,0.0,0 STARLINK-4054,1 53158U 22083AC  23106.54195695  .00030411  00000-0  19198-2 0  9992,2 53158  53.2151 234.3298 0000862  47.1604 312.9460 15.08855622 41619,6917.833,95.437,540.294,539.101,0.0
53158.0,STARLINK-4054,PAYLOAD,2023-04-16 17:46:34,15.08859802,0.0001207,53.2154,233.4374,78.0278,282.0849,0.0014199,0.00022394,0.0,0 STARLINK-4054,1 53158U 22083AC  23106.74067534  .00022394  00000-0  14199-2 0  9991,2 53158  53.2154 233.4374 0001207  78.0278 282.0849 15.08859802 42276,6917.82,95.436,540.52,538.85,0.0
53158.0,STARLINK-4054,PAYLOAD,2023-04-17 12:51:12,15.08837226,0.0001768,53.2157,229.8691,93.3242,266.7952,0.00095215,0.00014897,0.0,0 STARLINK-4054,1 53158U 22083AC  23107.53556472  .00014897  00000-0  95215-3 0  9991,2 53158  53.2157 229.8691 0001768  93.3242 266.7952 15.08837226 41766,6917.889,95.438,540.977,538.531,0.0
53158.0,STARLINK-4054,PAYLOAD,2023-04-17 14:26:36,15.08837636,0.0001589,53.2159,229.5723,84.5347,275.5826,0.0015911,0.00025123,0.0,0 STARLINK-4054,1 53158U 22083AC  23107.60180589  .00025123  00000-0  15911-2 0  9999,2 53158  53.2159 229.5723 0001589  84.5347 275.5826 15.08837636 41774,6917.888,95.438,540.852,538.653,0.0
53158.0,STARLINK-4054,PAYLOAD,2023-04-18 01:34:18,15.08846565,0.0001674,53.2157,227.4928,74.5111,285.6066,0.0014274,0.00022506,0.0,0 STARLINK-4054,1 53158U 22083AC  23108.06548806  .00022506  00000-0  14274-2 0  9993,2 53158  53.2157 227.4928 0001674  74.5111 285.6066 15.08846565 41846,6917.86,95.437,540.883,538.567,0.0
53158.0,STARLINK-4054,PAYLOAD,2023-04-18 12:42:00,15.08846401,0.0001657,53.2169,225.4077,98.3979,261.7201,0.00081137,0.00012651,0.0,0 STARLINK-4054,1 53158U 22083AC  23108.52916715  .00012651  00000-0  81137-3 0  9995,2 53158  53.2169 225.4077 0001657  98.3979 261.7201 15.08846401 42542,6917.861,95.437,540.872,538.58,0.0
53158.0,STARLINK-4054,PAYLOAD,2023-04-18 17:28:09,15.08853076,0.0001581,53.2164,224.5149,102.8201,257.2968,0.00075789,0.00011799,0.0,0 STARLINK-4054,1 53158U 22083AC  23108.72788440  .00011799  00000-0  75789-3 0  9997,2 53158  53.2164 224.5149 0001581 102.8201 257.2968 15.08853076 41941,6917.84,95.437,540.799,538.612,0.0
53158.0,STARLINK-4054,PAYLOAD,2023-04-19 14:08:09,15.08849364,0.0001604,53.2168,220.6495,89.2548,270.8628,0.00037269,5.65e-05,0.0,0 STARLINK-4054,1 53158U 22083AC  23109.58900459  .00005650  00000-0  37269-3 0  9998,2 53158  53.2168 220.6495 0001604  89.2548 270.8628 15.08849364 42708,6917.852,95.437,540.826,538.607,0.0
53158.0,STARLINK-4054,PAYLOAD,2023-04-20 07:37:24,15.0883699,0.0001528,53.2175,217.3747,115.6035,244.5115,1.3136e-05,-7.9e-07,0.0,0 STARLINK-4054,1 53158U 22083AC  23110.31764578 -.00000079  00000-0  13136-4 0  9990,2 53158  53.2175 217.3747 0001528 115.6035 244.5115 15.08836990 42181,6917.89,95.438,540.812,538.698,0.0
53158.0,STARLINK-4054,PAYLOAD,2023-04-20 12:23:33,15.0884109,0.0001616,53.2172,216.4872,105.7341,254.3829,7.9821e-05,9.83e-06,0.0,0 STARLINK-4054,1 53158U 22083AC  23110.51636558  .00000983  00000-0  79821-4 0  9994,2 53158  53.2172 216.4872 0001616 105.7341 254.3829 15.08841090 42846,6917.877,95.437,540.86,538.624,0.0
53158.0,STARLINK-4054,PAYLOAD,2023-04-20 13:58:57,15.0884252,0.0001497,53.2168,216.1895,105.7847,254.331,4.7621e-05,4.7e-06,0.0,0 STARLINK-4054,1 53158U 22083AC  23110.58260417  .00000470  00000-0  47621-4 0  9992,2 53158  53.2168 216.1895 0001497 105.7847 254.3310 15.08842520 42227,6917.873,95.437,540.773,538.702,0.0
53158.0,STARLINK-4054,PAYLOAD,2023-04-21 13:49:44,15.08839388,0.0001522,53.2171,211.7322,102.0538,258.0625,3.3076e-05,2.38e-06,0.0,0 STARLINK-4054,1 53158U 22083AC  23111.57620932  .00000238  00000-0  33076-4 0  9995,2 53158  53.2171 211.7322 0001522 102.0538 258.0625 15.08839388 43008,6917.882,95.438,540.8,538.694,0.0
53158.0,STARLINK-4054,PAYLOAD,2023-04-21 17:00:30,15.08845072,0.0001471,53.2164,211.137,98.0702,262.0457,6.5283e-05,7.51e-06,0.0,0 STARLINK-4054,1 53158U 22083AC  23111.70868589  .00000751  00000-0  65283-4 0  9997,2 53158  53.2164 211.1370 0001471  98.0702 262.0457 15.08845072 42393,6917.865,95.437,540.748,538.712,0.0
53158.0,STARLINK-4054,PAYLOAD,2023-04-22 05:43:35,15.08840966,0.0001191,53.2144,208.7564,95.9347,264.1781,0.00011748,1.582e-05,0.0,0 STARLINK-4054,1 53158U 22083AC  23112.23860916  .00001582  00000-0  11748-3 0  9991,2 53158  53.2144 208.7564 0001191  95.9347 264.1781 15.08840966 42477,6917.877,95.437,540.566,538.919,0.0
53158.0,STARLINK-4054,PAYLOAD,2023-04-22 12:05:08,15.08844489,0.0001242,53.2148,207.5674,97.8256,262.2877,0.00015271,2.144e-05,0.0,0 STARLINK-4054,1 53158U 22083AC  23112.50356713  .00002144  00000-0  15271-3 0  9996,2 53158  53.2148 207.5674 0001242  97.8256 262.2877 15.08844489 42511,6917.867,95.437,540.591,538.872,0.0
53158.0,STARLINK-4054,PAYLOAD,2023-04-23 07:09:46,15.08828391,0.0001446,53.2152,204.0007,99.1868,260.9288,-1.957e-05,-5.99e-06,0.0,0 STARLINK-4054,1 53158U 22083AC  23113.29846025 -.00000599  00000-0 -19570-4 0  9994,2 53158  53.2152 204.0007 0001446  99.1868 260.9288 15.08828391 43266,6917.916,95.438,540.781,538.781,0.0
53158.0,STARLINK-4054,PAYLOAD,2023-04-23 10:20:32,15.08832618,0.0001343,53.2178,203.4066,99.1105,261.004,2.8899e-05,1.72e-06,0.0,0 STARLINK-4054,1 53158U 22083AC  23113.43093749  .00000172  00000-0  28899-4 0  9996,2 53158  53.2178 203.4066 0001343  99.1105 261.0040 15.08832618 42659,6917.903,95.438,540.697,538.839,0.0
53158.0,STARLINK-4054,PAYLOAD,2023-04-23 23:03:37,15.08845517,0.0001268,53.2155,201.026,89.5974,270.5163,0.00022696,3.327e-05,0.0,0 STARLINK-4054,1 53158U 22083AC  23113.96085148  .00003327  00000-0  22696-3 0  9991,2 53158  53.2155 201.0260 0001268  89.5974 270.5163 15.08845517 43369,6917.864,95.437,540.606,538.851,0.0
53158.0,STARLINK-4054,PAYLOAD,2023-04-24 05:25:09,15.08882628,0.0001258,53.2153,199.8355,96.7444,263.3691,0.0010771,0.00016916,0.0,0 STARLINK-4054,1 53158U 22083AC  23114.22580190  .00016916  00000-0  10771-2 0  9996,2 53158  53.2153 199.8355 0001258  96.7444 263.3691 15.08882628 43402,6917.75,95.435,540.485,538.745,0.0
53158.0,STARLINK-4054,PAYLOAD,2023-04-24 13:22:04,15.08919418,0.0001268,53.215,198.3526,75.4638,284.6494,0.0025563,0.0004072,0.0,0 STARLINK-4054,1 53158U 22083AC  23114.55699332  .00040720  00000-0  25563-2 0  9996,2 53158  53.2150 198.3526 0001268  75.4638 284.6494 15.08919418 42823,6917.638,95.433,540.38,538.625,0.0
